{
  "type": "FeatureCollection",
  "features": [
    {
      "type": "Feature",
      "properties": {
        "norad_id": 33737,
        "name": "FENGYUN 1C DEB",
        "group": "fengyun-1c-debris",
        "lat": -74.95053918255489,
        "lon": -38.145912755174464,
        "alt_km": 822.7734747086424,
        "timestamp": "2025-12-06T11:28:11.349565+00:00",
        "meta_object_name": "FENGYUN 1C DEB",
        "meta_object_id": "1999-025DJA",
        "meta_epoch": "2025-12-05T12:07:19.908192",
        "meta_mean_motion": 14.02956091,
        "meta_eccentricity": 0.01283952,
        "meta_inclination": 98.3378,
        "meta_ra_of_asc_node": 174.016,
        "meta_arg_of_pericenter": 303.7603,
        "meta_mean_anomaly": 84.0383,
        "meta_ephemeris_type": 0,
        "meta_classification_type": "U",
        "meta_norad_cat_id": 33737,
        "meta_element_set_no": 999,
        "meta_rev_at_epoch": 88639,
        "meta_bstar": 0.0021301018,
        "meta_mean_motion_dot": 3.515e-05,
        "meta_mean_motion_ddot": 0,
        "tle_line1": "1 33737U 99025DJA 25339.50509153  .00003515  00000+0  21301-2 0  9990",
        "tle_line2": "2 33737  98.3378 174.0160 0128395 303.7603  84.0383 14.02956091886399"
      },
      "geometry": {
        "type": "Point",
        "coordinates": [
          -38.145912755174464,
          -74.95053918255489
        ]
      }
    },
    {
      "type": "Feature",
      "properties": {
        "norad_id": 33738,
        "name": "FENGYUN 1C DEB",
        "group": "fengyun-1c-debris",
        "lat": -71.91705659429279,
        "lon": -169.07902162530866,
        "alt_km": 1011.4074463753332,
        "timestamp": "2025-12-06T11:28:11.349575+00:00",
        "meta_object_name": "FENGYUN 1C DEB",
        "meta_object_id": "1999-025DJB",
        "meta_epoch": "2025-12-04T03:28:56.102592",
        "meta_mean_motion": 13.99511087,
        "meta_eccentricity": 0.01852146,
        "meta_inclination": 99.1538,
        "meta_ra_of_asc_node": 38.1791,
        "meta_arg_of_pericenter": 45.1084,
        "meta_mean_anomaly": 343.5505,
        "meta_ephemeris_type": 0,
        "meta_classification_type": "U",
        "meta_norad_cat_id": 33738,
        "meta_element_set_no": 999,
        "meta_rev_at_epoch": 89116,
        "meta_bstar": 0.00082794835,
        "meta_mean_motion_dot": 1.356e-05,
        "meta_mean_motion_ddot": 0,
        "tle_line1": "1 33738U 99025DJB 25338.14509378  .00001356  00000+0  82795-3 0  9995",
        "tle_line2": "2 33738  99.1538  38.1791 0185214  45.1084 343.5505 13.99511087891167"
      },
      "geometry": {
        "type": "Point",
        "coordinates": [
          -169.07902162530866,
          -71.91705659429279
        ]
      }
    },
    {
      "type": "Feature",
      "properties": {
        "norad_id": 33740,
        "name": "FENGYUN 1C DEB",
        "group": "fengyun-1c-debris",
        "lat": 5.709486170507562,
        "lon": -7.294238038962929,
        "alt_km": 854.4872533170283,
        "timestamp": "2025-12-06T11:28:11.349585+00:00",
        "meta_object_name": "FENGYUN 1C DEB",
        "meta_object_id": "1999-025DJD",
        "meta_epoch": "2025-12-05T23:32:25.906560",
        "meta_mean_motion": 14.12316827,
        "meta_eccentricity": 0.0001832,
        "meta_inclination": 98.6875,
        "meta_ra_of_asc_node": 353.0999,
        "meta_arg_of_pericenter": 140.3479,
        "meta_mean_anomaly": 219.7827,
        "meta_ephemeris_type": 0,
        "meta_classification_type": "U",
        "meta_norad_cat_id": 33740,
        "meta_element_set_no": 999,
        "meta_rev_at_epoch": 90051,
        "meta_bstar": 0.00023879398,
        "meta_mean_motion_dot": 3.97e-06,
        "meta_mean_motion_ddot": 0,
        "tle_line1": "1 33740U 99025DJD 25339.98085540  .00000397  00000+0  23879-3 0  9993",
        "tle_line2": "2 33740  98.6875 353.0999 0001832 140.3479 219.7827 14.12316827900518"
      },
      "geometry": {
        "type": "Point",
        "coordinates": [
          -7.294238038962929,
          5.709486170507562
        ]
      }
    },
    {
      "type": "Feature",
      "properties": {
        "norad_id": 33741,
        "name": "FENGYUN 1C DEB",
        "group": "fengyun-1c-debris",
        "lat": 75.35353128951466,
        "lon": 109.59348410788508,
        "alt_km": 761.6391037171898,
        "timestamp": "2025-12-06T11:28:11.349595+00:00",
        "meta_object_name": "FENGYUN 1C DEB",
        "meta_object_id": "1999-025DJE",
        "meta_epoch": "2025-12-03T01:13:47.209440",
        "meta_mean_motion": 14.09703681,
        "meta_eccentricity": 0.01266969,
        "meta_inclination": 98.5656,
        "meta_ra_of_asc_node": 251.1133,
        "meta_arg_of_pericenter": 115.9094,
        "meta_mean_anomaly": 245.52,
        "meta_ephemeris_type": 0,
        "meta_classification_type": "U",
        "meta_norad_cat_id": 33741,
        "meta_element_set_no": 999,
        "meta_rev_at_epoch": 56726,
        "meta_bstar": 0.00265972,
        "meta_mean_motion_dot": 4.989e-05,
        "meta_mean_motion_ddot": 0,
        "tle_line1": "1 33741U 99025DJE 25337.05124085  .00004989  00000+0  26597-2 0  9998",
        "tle_line2": "2 33741  98.5656 251.1133 0126696 115.9094 245.5200 14.09703681567267"
      },
      "geometry": {
        "type": "Point",
        "coordinates": [
          109.59348410788508,
          75.35353128951466
        ]
      }
    },
    {
      "type": "Feature",
      "properties": {
        "norad_id": 33745,
        "name": "FENGYUN 1C DEB",
        "group": "fengyun-1c-debris",
        "lat": 0.08655884440666925,
        "lon": -162.55746148774938,
        "alt_km": 830.3698688314053,
        "timestamp": "2025-12-06T11:28:11.349605+00:00",
        "meta_object_name": "FENGYUN 1C DEB",
        "meta_object_id": "1999-025DJJ",
        "meta_epoch": "2025-11-25T01:05:32.743968",
        "meta_mean_motion": 14.22170506,
        "meta_eccentricity": 0.00530671,
        "meta_inclination": 99.1146,
        "meta_ra_of_asc_node": 5.6166,
        "meta_arg_of_pericenter": 317.4724,
        "meta_mean_anomaly": 42.2348,
        "meta_ephemeris_type": 0,
        "meta_classification_type": "U",
        "meta_norad_cat_id": 33745,
        "meta_element_set_no": 999,
        "meta_rev_at_epoch": 65750,
        "meta_bstar": 0.0015193996,
        "meta_mean_motion_dot": 3.37e-05,
        "meta_mean_motion_ddot": 0,
        "tle_line1": "1 33745U 99025DJJ 25329.04551787  .00003370  00000+0  15194-2 0  9999",
        "tle_line2": "2 33745  99.1146   5.6166 0053067 317.4724  42.2348 14.22170506657501"
      },
      "geometry": {
        "type": "Point",
        "coordinates": [
          -162.55746148774938,
          0.08655884440666925
        ]
      }
    },
    {
      "type": "Feature",
      "properties": {
        "norad_id": 33747,
        "name": "FENGYUN 1C DEB",
        "group": "fengyun-1c-debris",
        "lat": -24.992016397995272,
        "lon": -109.27369324741987,
        "alt_km": 783.8743102299813,
        "timestamp": "2025-12-06T11:28:11.349615+00:00",
        "meta_object_name": "FENGYUN 1C DEB",
        "meta_object_id": "1999-025DJL",
        "meta_epoch": "2025-11-29T12:27:00.158112",
        "meta_mean_motion": 14.17213591,
        "meta_eccentricity": 0.00886133,
        "meta_inclination": 99.0966,
        "meta_ra_of_asc_node": 67.8906,
        "meta_arg_of_pericenter": 253.5899,
        "meta_mean_anomaly": 105.552,
        "meta_ephemeris_type": 0,
        "meta_classification_type": "U",
        "meta_norad_cat_id": 33747,
        "meta_element_set_no": 999,
        "meta_rev_at_epoch": 89945,
        "meta_bstar": 0.0024193781,
        "meta_mean_motion_dot": 5.029e-05,
        "meta_mean_motion_ddot": 0,
        "tle_line1": "1 33747U 99025DJL 25333.51875183  .00005029  00000+0  24194-2 0  9990",
        "tle_line2": "2 33747  99.0966  67.8906 0088613 253.5899 105.5520 14.17213591899455"
      },
      "geometry": {
        "type": "Point",
        "coordinates": [
          -109.27369324741987,
          -24.992016397995272
        ]
      }
    },
    {
      "type": "Feature",
      "properties": {
        "norad_id": 33748,
        "name": "FENGYUN 1C DEB",
        "group": "fengyun-1c-debris",
        "lat": -68.47501620787325,
        "lon": -170.83273689297872,
        "alt_km": 767.3232279100857,
        "timestamp": "2025-12-06T11:28:11.349625+00:00",
        "meta_object_name": "FENGYUN 1C DEB",
        "meta_object_id": "1999-025DJM",
        "meta_epoch": "2025-12-04T09:40:45.138144",
        "meta_mean_motion": 14.32194668,
        "meta_eccentricity": 0.0034299,
        "meta_inclination": 98.5874,
        "meta_ra_of_asc_node": 29.6407,
        "meta_arg_of_pericenter": 266.0664,
        "meta_mean_anomaly": 93.6599,
        "meta_ephemeris_type": 0,
        "meta_classification_type": "U",
        "meta_norad_cat_id": 33748,
        "meta_element_set_no": 999,
        "meta_rev_at_epoch": 91274,
        "meta_bstar": 0.0030039,
        "meta_mean_motion_dot": 8.108e-05,
        "meta_mean_motion_ddot": 0,
        "tle_line1": "1 33748U 99025DJM 25338.40330021  .00008108  00000+0  30039-2 0  9997",
        "tle_line2": "2 33748  98.5874  29.6407 0034299 266.0664  93.6599 14.32194668912741"
      },
      "geometry": {
        "type": "Point",
        "coordinates": [
          -170.83273689297872,
          -68.47501620787325
        ]
      }
    }
  ]
}